UWE-3                   
1 39446U 13066AG  26073.61172463  .00006966  00000+0  60832-3 0  9998
2 39446  97.8593  29.1621 0047907 275.1721  84.4033 14.96242909663432
UNISAT-6                
1 40012U 14033C   26073.38168126  .00003862  00000+0  42208-3 0  9998
2 40012  97.7730 227.8671 0045759  22.5980 337.7238 14.87674800632066
DUCHIFAT-1              
1 40021U 14033M   26073.60578680  .00086823  00000+0  15095-2 0  9994
2 40021  98.0635 120.6147 0005629  70.3832 289.8025 15.50481818641035
QB50P1                  
1 40025U 14033R   26073.46052450  .00011401  00000+0  58588-3 0  9999
2 40025  98.1006  78.0660 0008912 177.3955 182.7325 15.16630587638660
LILACSAT-2              
1 40908U 15049K   26073.62115170  .00024422  00000+0  46433-3 0  9997
2 40908  97.4804 107.0174 0006071 223.1172 136.9603 15.48228564581105
FOX-1A (AO-85)          
1 40967U 15058D   26073.62501573  .00004594  00000+0  41680-3 0  9995
2 40967  64.7751 212.7187 0128748  93.9412 267.6429 14.90401583 99474
CAS-2T & KS-1Q          
1 41847U 16066G   26073.48654589  .00001442  00000+0  20981-3 0  9993
2 41847  98.3878 150.2835 0343490  56.9870 306.3834 14.44485346491128
RADFXSAT (FOX-1B)       
1 43017U 17073E   26073.62831316  .00013646  00000+0  61706-3 0  9993
2 43017  97.4861 302.8209 0153790 295.0415  63.4915 15.10996825451102
DIWATA-2B               
1 43678U 18084H   26073.59199833  .00002169  00000+0  17945-3 0  9990
2 43678  98.1039 265.8299 0012294 112.3342 247.9185 14.99988445402031
ES'HAIL 2               
1 43700U 18090A   26073.57357547  .00000143  00000+0  00000+0 0  9999
2 43700   0.0143 132.0856 0001088 219.1213  53.2689  1.00272024 26723
FOX-1CLIFF (AO-95)      
1 43770U 18099N   26072.12206546  .00013648  00000+0  55688-3 0  9997
2 43770  97.4510 132.8256 0008083 333.7998  26.2829 15.24512623398579
ITASAT                  
1 43786U 18099AE  26073.58744915  .00009925  00000+0  49362-3 0  9997
2 43786  97.4161 127.0167 0011748 328.3634  31.6892 15.17766406398554
JY1SAT (JO-97)          
1 43803U 18099AX  26073.59016575  .00024744  00000+0  83935-3 0  9992
2 43803  97.4249 136.2668 0004997 235.6318 124.4451 15.30507754399148
UWE-4                   
1 43880U 18111E   26073.02812134  .00036111  00000+0  89456-3 0  9990
2 43880  97.5847 357.4738 0006671 322.1188  37.9587 15.40303245396102
TIANYAN 01              
1 44881U 19093C   26073.60006061  .00000688  00000+0  83997-4 0  9995
2 44881  97.7603 148.1218 0014614  42.8077 317.4274 14.86351712337366
RS-44 & BREEZE-KM R/B   
1 44909U 19096E   26073.40705991  .00000024  00000+0  53931-4 0  9994
2 44909  82.5211  42.6787 0217724   6.3050 354.0711 12.79747576290229
